STARLINK-31510          
1 59575U 24076M   24301.32748602 -.00000564  00000+0 -62526-5 0  9994
2 59575  43.0016 320.8954 0001338 240.1059 119.9665 15.40690765 30085
STARLINK-31663          
1 59576U 24076N   24301.46559716  .00005912  00000+0  14879-3 0  9992
2 59576  43.0004 319.3353 0000791 267.9737  92.1029 15.40675268 30112
STARLINK-31692          
1 59577U 24076P   24301.76062671  .00005972  00000+0  15006-3 0  9994
2 59577  42.9997 317.2431 0001435 273.4455  86.6237 15.40710118 30169
STARLINK-31685          
1 59578U 24076Q   24301.43473401  .00000159  00000+0  11067-4 0  9992
2 59578  43.0002 319.9709 0000706 206.0410 154.0411 15.40698259 30108
STARLINK-31686          
1 59579U 24076R   24301.75216463  .00001150  00000+0  34825-4 0  9990
2 59579  43.0045 318.0500 0001555 253.1028 106.9658 15.40674968 30151
STARLINK-31668          
1 59580U 24076S   24301.77457445 -.00003280  00000+0 -71323-4 0  9993
2 59580  42.9961 318.2209 0002850 110.8168 249.2993 15.40676068 30144
STARLINK-31690          
1 59581U 24076T   24301.74507751  .00003619  00000+0  93851-4 0  9991
2 59581  43.0024 317.9960 0000944 275.8646  84.2103 15.40703934 30156
STARLINK-31701          
1 59582U 24076U   24301.73839972  .00050348  00000+0  12006-2 0  9996
2 59582  43.0035 317.9463 0002241 238.2203 121.8435 15.40799519 29980
STARLINK-31697          
1 59583U 24076V   24301.74055354  .00015957  00000+0  38756-3 0  9990
2 59583  43.0017 317.9613 0001687 242.2188 117.8497 15.40769372 29985
STARLINK-31662          
1 59584U 24076W   24301.40972547  .00003743  00000+0  96807-4 0  9998
2 59584  43.0031 319.7738 0001379 250.0058 110.0650 15.40705005 30106
STARLINK-31702          
1 59585U 24076X   24301.74957285  .00003588  00000+0  93162-4 0  9996
2 59585  43.0009 318.0296 0000463 210.5407 149.5423 15.40684553 30148
STARLINK-31704          
1 59586U 24076Y   24301.86485159  .00095459  00000+0  22610-2 0  9992
2 59586  43.0013 272.6390 0001166 251.5374 108.5356 15.40739676 30634
STARLINK-31770          
1 59601U 24080A   24301.34829119 -.00000699  00000+0 -94456-5 0  9990
2 59601  43.0065 354.2803 0002251 268.8044  91.2555 15.40697653 29271
STARLINK-31778          
1 59602U 24080B   24301.56070241 -.00003650  00000+0 -80188-4 0  9995
2 59602  43.0009 353.3007 0000792 304.5191  55.5591 15.40690094 29315
STARLINK-31776          
1 59603U 24080C   24301.59191427 -.00007640  00000+0 -17569-3 0  9994
2 59603  43.0018 352.6641 0001796 247.5381 112.5286 15.40719879 29277
STARLINK-31765          
1 59604U 24080D   24301.50482762  .00092470  00000+0  21927-2 0  9996
2 59604  43.0042 353.7376 0001347 256.8672 103.2034 15.40720417 29302
STARLINK-31767          
1 59605U 24080E   24301.55401601 -.00008740  00000+0 -20250-3 0  9993
2 59605  43.0011 353.2446 0000493 305.1738  54.9072 15.40658591 29312
