[{"OBJECT_NAME":"STARLINK-31510","OBJECT_ID":"2024-076M","EPOCH":"2024-10-27T07:51:34.792128","MEAN_MOTION":15.40690765,"ECCENTRICITY":0.0001338,"INCLINATION":43.0016,"RA_OF_ASC_NODE":320.8954,"ARG_OF_PERICENTER":240.1059,"MEAN_ANOMALY":119.9665,"EPHEMERIS_TYPE":0,"CLASSIFICATION_TYPE":"U","NORAD_CAT_ID":59575,"ELEMENT_SET_NO":999,"REV_AT_EPOCH":3008,"BSTAR":-6.2526e-6,"MEAN_MOTION_DOT":-5.64e-6,"MEAN_MOTION_DDOT":0},{"OBJECT_NAME":"STARLINK-31663","OBJECT_ID":"2024-076N","EPOCH":"2024-10-27T11:10:27.594624","MEAN_MOTION":15.40675268,"ECCENTRICITY":7.91e-5,"INCLINATION":43.0004,"RA_OF_ASC_NODE":319.3353,"ARG_OF_PERICENTER":267.9737,"MEAN_ANOMALY":92.1029,"EPHEMERIS_TYPE":0,"CLASSIFICATION_TYPE":"U","NORAD_CAT_ID":59576,"ELEMENT_SET_NO":999,"REV_AT_EPOCH":3011,"BSTAR":0.00014879,"MEAN_MOTION_DOT":5.912e-5,"MEAN_MOTION_DDOT":0},{"OBJECT_NAME":"STARLINK-31692","OBJECT_ID":"2024-076P","EPOCH":"2024-10-27T18:15:18.147744","MEAN_MOTION":15.40710118,"ECCENTRICITY":0.0001435,"INCLINATION":42.9997,"RA_OF_ASC_NODE":317.2431,"ARG_OF_PERICENTER":273.4455,"MEAN_ANOMALY":86.6237,"EPHEMERIS_TYPE":0,"CLASSIFICATION_TYPE":"U","NORAD_CAT_ID":59577,"ELEMENT_SET_NO":999,"REV_AT_EPOCH":3016,"BSTAR":0.00015006,"MEAN_MOTION_DOT":5.972e-5,"MEAN_MOTION_DDOT":0},{"OBJECT_NAME":"STARLINK-31685","OBJECT_ID":"2024-076Q","EPOCH":"2024-10-27T10:26:01.018464","MEAN_MOTION":15.40698259,"ECCENTRICITY":7.06e-5,"INCLINATION":43.0002,"RA_OF_ASC_NODE":319.9709,"ARG_OF_PERICENTER":206.041,"MEAN_ANOMALY":154.0411,"EPHEMERIS_TYPE":0,"CLASSIFICATION_TYPE":"U","NORAD_CAT_ID":59578,"ELEMENT_SET_NO":999,"REV_AT_EPOCH":3010,"BSTAR":1.1067e-5,"MEAN_MOTION_DOT":1.59e-6,"MEAN_MOTION_DDOT":0},{"OBJECT_NAME":"STARLINK-31686","OBJECT_ID":"2024-076R","EPOCH":"2024-10-27T18:03:07.024032","MEAN_MOTION":15.40674968,"ECCENTRICITY":0.0001555,"INCLINATION":43.0045,"RA_OF_ASC_NODE":318.05,"ARG_OF_PERICENTER":253.1028,"MEAN_ANOMALY":106.9658,"EPHEMERIS_TYPE":0,"CLASSIFICATION_TYPE":"U","NORAD_CAT_ID":59579,"ELEMENT_SET_NO":999,"REV_AT_EPOCH":3015,"BSTAR":3.4825e-5,"MEAN_MOTION_DOT":1.15e-5,"MEAN_MOTION_DDOT":0},{"OBJECT_NAME":"STARLINK-31668","OBJECT_ID":"2024-076S","EPOCH":"2024-10-27T18:35:23.232480","MEAN_MOTION":15.40676068,"ECCENTRICITY":0.000285,"INCLINATION":42.9961,"RA_OF_ASC_NODE":318.2209,"ARG_OF_PERICENTER":110.8168,"MEAN_ANOMALY":249.2993,"EPHEMERIS_TYPE":0,"CLASSIFICATION_TYPE":"U","NORAD_CAT_ID":59580,"ELEMENT_SET_NO":999,"REV_AT_EPOCH":3014,"BSTAR":-7.1323e-5,"MEAN_MOTION_DOT":-3.28e-5,"MEAN_MOTION_DDOT":0},{"OBJECT_NAME":"STARLINK-31690","OBJECT_ID":"2024-076T","EPOCH":"2024-10-27T17:52:54.696864","MEAN_MOTION":15.40703934,"ECCENTRICITY":9.44e-5,"INCLINATION":43.0024,"RA_OF_ASC_NODE":317.996,"ARG_OF_PERICENTER":275.8646,"MEAN_ANOMALY":84.2103,"EPHEMERIS_TYPE":0,"CLASSIFICATION_TYPE":"U","NORAD_CAT_ID":59581,"ELEMENT_SET_NO":999,"REV_AT_EPOCH":3015,"BSTAR":9.3851e-5,"MEAN_MOTION_DOT":3.619e-5,"MEAN_MOTION_DDOT":0},{"OBJECT_NAME":"STARLINK-31701","OBJECT_ID":"2024-076U","EPOCH":"2024-10-27T17:43:17.735808","MEAN_MOTION":15.40799519,"ECCENTRICITY":0.0002241,"INCLINATION":43.0035,"RA_OF_ASC_NODE":317.9463,"ARG_OF_PERICENTER":238.2203,"MEAN_ANOMALY":121.8435,"EPHEMERIS_TYPE":0,"CLASSIFICATION_TYPE":"U","NORAD_CAT_ID":59582,"ELEMENT_SET_NO":999,"REV_AT_EPOCH":2998,"BSTAR":0.0012006,"MEAN_MOTION_DOT":0.00050348,"MEAN_MOTION_DDOT":0},{"OBJECT_NAME":"STARLINK-31697","OBJECT_ID":"2024-076V","EPOCH":"2024-10-27T17:46:23.825856","MEAN_MOTION":15.40769372,"ECCENTRICITY":0.0001687,"INCLINATION":43.0017,"RA_OF_ASC_NODE":317.9613,"ARG_OF_PERICENTER":242.2188,"MEAN_ANOMALY":117.8497,"EPHEMERIS_TYPE":0,"CLASSIFICATION_TYPE":"U","NORAD_CAT_ID":59583,"ELEMENT_SET_NO":999,"REV_AT_EPOCH":2998,"BSTAR":0.00038756,"MEAN_MOTION_DOT":0.00015957,"MEAN_MOTION_DDOT":0},{"OBJECT_NAME":"STARLINK-31662","OBJECT_ID":"2024-076W","EPOCH":"2024-10-27T09:50:00.280608","MEAN_MOTION":15.40705005,"ECCENTRICITY":0.0001379,"INCLINATION":43.0031,"RA_OF_ASC_NODE":319.7738,"ARG_OF_PERICENTER":250.0058,"MEAN_ANOMALY":110.065,"EPHEMERIS_TYPE":0,"CLASSIFICATION_TYPE":"U","NORAD_CAT_ID":59584,"ELEMENT_SET_NO":999,"REV_AT_EPOCH":3010,"BSTAR":9.6807e-5,"MEAN_MOTION_DOT":3.743e-5,"MEAN_MOTION_DDOT":0},{"OBJECT_NAME":"STARLINK-31702","OBJECT_ID":"2024-076X","EPOCH":"2024-10-27T17:59:23.094240","MEAN_MOTION":15.40684553,"ECCENTRICITY":4.63e-5,"INCLINATION":43.0009,"RA_OF_ASC_NODE":318.0296,"ARG_OF_PERICENTER":210.5407,"MEAN_ANOMALY":149.5423,"EPHEMERIS_TYPE":0,"CLASSIFICATION_TYPE":"U","NORAD_CAT_ID":59585,"ELEMENT_SET_NO":999,"REV_AT_EPOCH":3014,"BSTAR":9.3162e-5,"MEAN_MOTION_DOT":3.588e-5,"MEAN_MOTION_DDOT":0},{"OBJECT_NAME":"STARLINK-31704","OBJECT_ID":"2024-076Y","EPOCH":"2024-10-27T20:45:23.177376","MEAN_MOTION":15.40739676,"ECCENTRICITY":0.0001166,"INCLINATION":43.0013,"RA_OF_ASC_NODE":272.639,"ARG_OF_PERICENTER":251.5374,"MEAN_ANOMALY":108.5356,"EPHEMERIS_TYPE":0,"CLASSIFICATION_TYPE":"U","NORAD_CAT_ID":59586,"ELEMENT_SET_NO":999,"REV_AT_EPOCH":3063,"BSTAR":0.002261,"MEAN_MOTION_DOT":0.00095459,"MEAN_MOTION_DDOT":0},{"OBJECT_NAME":"STARLINK-31770","OBJECT_ID":"2024-080A","EPOCH":"2024-10-27T08:21:32.358816","MEAN_MOTION":15.40697653,"ECCENTRICITY":0.0002251,"INCLINATION":43.0065,"RA_OF_ASC_NODE":354.2803,"ARG_OF_PERICENTER":268.8044,"MEAN_ANOMALY":91.2555,"EPHEMERIS_TYPE":0,"CLASSIFICATION_TYPE":"U","NORAD_CAT_ID":59601,"ELEMENT_SET_NO":999,"REV_AT_EPOCH":2927,"BSTAR":-9.4456e-6,"MEAN_MOTION_DOT":-6.99e-6,"MEAN_MOTION_DDOT":0},{"OBJECT_NAME":"STARLINK-31778","OBJECT_ID":"2024-080B","EPOCH":"2024-10-27T13:27:24.688224","MEAN_MOTION":15.40690094,"ECCENTRICITY":7.92e-5,"INCLINATION":43.0009,"RA_OF_ASC_NODE":353.3007,"ARG_OF_PERICENTER":304.5191,"MEAN_ANOMALY":55.5591,"EPHEMERIS_TYPE":0,"CLASSIFICATION_TYPE":"U","NORAD_CAT_ID":59602,"ELEMENT_SET_NO":999,"REV_AT_EPOCH":2931,"BSTAR":-8.0188e-5,"MEAN_MOTION_DOT":-3.65e-5,"MEAN_MOTION_DDOT":0},{"OBJECT_NAME":"STARLINK-31776","OBJECT_ID":"2024-080C","EPOCH":"2024-10-27T14:12:21.392928","MEAN_MOTION":15.40719879,"ECCENTRICITY":0.0001796,"INCLINATION":43.0018,"RA_OF_ASC_NODE":352.6641,"ARG_OF_PERICENTER":247.5381,"MEAN_ANOMALY":112.5286,"EPHEMERIS_TYPE":0,"CLASSIFICATION_TYPE":"U","NORAD_CAT_ID":59603,"ELEMENT_SET_NO":999,"REV_AT_EPOCH":2927,"BSTAR":-0.00017569,"MEAN_MOTION_DOT":-7.64e-5,"MEAN_MOTION_DDOT":0},{"OBJECT_NAME":"STARLINK-31765","OBJECT_ID":"2024-080D","EPOCH":"2024-10-27T12:06:57.106368","MEAN_MOTION":15.40720417,"ECCENTRICITY":0.0001347,"INCLINATION":43.0042,"RA_OF_ASC_NODE":353.7376,"ARG_OF_PERICENTER":256.8672,"MEAN_ANOMALY":103.2034,"EPHEMERIS_TYPE":0,"CLASSIFICATION_TYPE":"U","NORAD_CAT_ID":59604,"ELEMENT_SET_NO":999,"REV_AT_EPOCH":2930,"BSTAR":0.0021927,"MEAN_MOTION_DOT":0.0009247,"MEAN_MOTION_DDOT":0},{"OBJECT_NAME":"STARLINK-31767","OBJECT_ID":"2024-080E","EPOCH":"2024-10-27T13:17:46.983264","MEAN_MOTION":15.40658591,"ECCENTRICITY":4.93e-5,"INCLINATION":43.0011,"RA_OF_ASC_NODE":353.2446,"ARG_OF_PERICENTER":305.1738,"MEAN_ANOMALY":54.9072,"EPHEMERIS_TYPE":0,"CLASSIFICATION_TYPE":"U","NORAD_CAT_ID":59605,"ELEMENT_SET_NO":999,"REV_AT_EPOCH":2931,"BSTAR":-0.0002025,"MEAN_MOTION_DOT":-8.74e-5,"MEAN_MOTION_DDOT":0}]